ELYSIUM STAR 2 & LFF    
1 43760U 18099C   24236.21735047  .00093498  00000+0  27797-2 0  9999
2 43760  97.5092 304.5177 0003560  42.4154 317.7363 15.34375955313481
